"{\n    \"CCSDS_OMM_VERS\": \"2.0\",\n    \"COMMENT\": \"GENERATED VIA SPACE-TRACK.ORG API\",\n    \"CREATION_DATE\": \"2025-08-31T17:37:22\",\n    \"ORIGINATOR\": \"18 SPCS\",\n    \"OBJECT_NAME\": \"CYGFM01\",\n    \"OBJECT_ID\": \"2016-078D\",\n    \"CENTER_NAME\": \"EARTH\",\n    \"REF_FRAME\": \"TEME\",\n    \"TIME_SYSTEM\": \"UTC\",\n    \"MEAN_ELEMENT_THEORY\": \"SGP4\",\n    \"EPOCH\": \"2025-08-31T13:50:01.905216\",\n    \"MEAN_MOTION\": \"15.430729309\",\n    \"ECCENTRICITY\": \"0.00088389746\",\n    \"INCLINATION\": \"34.944742\",\n    \"RA_OF_ASC_NODE\": \"1.3974034\",\n    \"ARG_OF_PERICENTER\": \"288.6581\",\n    \"MEAN_ANOMALY\": \"71.317911\",\n    \"EPHEMERIS_TYPE\": \"0\",\n    \"CLASSIFICATION_TYPE\": \"U\",\n    \"NORAD_CAT_ID\": \"41887\",\n    \"ELEMENT_SET_NO\": \"999\",\n    \"REV_AT_EPOCH\": \"48373\",\n    \"BSTAR\": \"0.00048628576\",\n    \"MEAN_MOTION_DOT\": \"0.00022165041\",\n    \"MEAN_MOTION_DDOT\": \"0\",\n    \"TLE_LINE0\": \"0 CYGFM01\",\n    \"TLE_LINE1\": \"1 41887U 16078D   25243.57641094  .00022165  00000-0  48629-3 0  9990\",\n    \"TLE_LINE2\": \"2 41887  34.9447   1.3974 0008839 288.6581  71.3179 15.43072931483739\",\n    \"SEMIMAJOR_AXIS\": \"6815.183\",\n    \"PERIOD\": \"93.320\",\n    \"APOAPSIS\": \"443.072\",\n    \"PERIAPSIS\": \"431.024\",\n    \"OBJECT_TYPE\": \"PAYLOAD\",\n    \"DECAYED\": \"0\"\n}"